SILU-1 (SILKROAD 1)     
1 42903U 17021F   18238.50092503  .00023303  00000-0  15559-3 0  9994
2 42903  42.7765 261.3217 0012467  75.4271  40.1105 15.74749046 61004
MIRATA                  
1 43015U 17073C   18237.87945780  .00001590  00000-0  12947-3 0  9991
2 43015  97.7042 165.9746 0259039  44.8303 317.3519 14.78261292 41435
MAKERSAT 0              
1 43016U 17073D   18238.33831158  .00001078  00000-0  89139-4 0  9996
2 43016  97.7070 166.5561 0260378  43.4292 318.7111 14.78235575 41493
ASTERIA                 
1 43020U 98067NH  18238.48293649  .00018662  00000-0  22614-3 0  9997
2 43020  51.6424  20.8503 0002775  75.8353 284.2949 15.60686869 43463
DELLINGR (RBLE)         
1 43021U 98067NJ  18238.49652688  .00012367  00000-0  16589-3 0  9991
2 43021  51.6411  23.1526 0002627  69.7470 290.3805 15.58369596 43437
OSIRIS-3U               
1 43027U 98067NL  18237.95717220  .00032702  00000-0  29256-3 0  9991
2 43027  51.6379  16.5084 0002509  39.1755 320.9423 15.68044946 43354
AEROCUBE 7B             
1 43042U 17071F   18237.53325743  .00002751  00000-0  79684-4 0  9995
2 43042  51.6391  63.5868 0005399 150.9747 209.1538 15.39228525 40289
AEROCUBE 7C             
1 43043U 17071G   18237.85788725  .00002722  00000-0  78966-4 0  9994
2 43043  51.6394  62.0104 0005472 154.0786 206.0473 15.39227904 40307
CHEFSAT                 
1 43044U 17071H   18238.46984254  .00005220  00000-0  13695-3 0  9991
2 43044  51.6395  57.8796 0005480 155.1334 204.9916 15.40367772 40419
ASGARDIA 1              
1 43049U 17071N   18238.48204112  .00004402  00000-0  12087-3 0  9991
2 43049  51.6395  58.6871 0002764 168.5612 191.5435 15.39361744 40391
ISARA                   
1 43050U 17071P   18238.47972778  .00004184  00000-0  11246-3 0  9995
2 43050  51.6390  57.9368 0002748 164.4779 195.6290 15.40163550 40405
FAUNA                   
1 43052U 17071R   18237.81487273  .00002200  00000-0  65194-4 0  9994
2 43052  51.6396  61.7424 0002790 162.0984 198.0099 15.39502130 40298
CORVUS BC3              
1 43118U 18004H   18237.42341510  .00000576  00000-0  28060-4 0  9999
2 43118  97.5277 300.1319 0009861 204.7864 155.2900 15.22348925 34244
MICROMAS-2A             
1 43131U 18004W   18238.47263850  .00001514  00000-0  67385-4 0  9996
2 43131  97.5286 301.3623 0009071 202.8907 157.1926 15.23019084 34410
GOMX4-B                 
1 43196U 18015E   18237.56019504  .00000287  00000-0  14843-4 0  9990
2 43196  97.3530   5.0967 0017527 275.1624  84.7612 15.23717033 31091
GOMX4-A                 
1 43197U 18015F   18238.42326630  .00000763  00000-0  34583-4 0  9990
2 43197  97.3560   5.9500 0017749 270.1300 161.6083 15.23723530 31231
1KUNS-PF                
1 43466U 98067NP  18237.84374222  .00010451  00000-0  14885-3 0  9996
2 43466  51.6400  30.0347 0000473  55.3804 304.7233 15.56942628 16543
UBAKUSAT                
1 43467U 98067NQ  18238.49633571  .00010257  00000-0  14832-3 0  9990
2 43467  51.6405  26.8958 0002805  39.9921 320.1276 15.56555025 16651
BATSU-CS1 (IRAZU)       
1 43468U 98067NR  18238.47191295  .00018359  00000-0  25243-3 0  9990
2 43468  51.6401  26.7301 0000362  37.7560 322.3457 15.57337552116638
CUBERRT                 
1 43546U 98067NU  18237.82057914  .00007020  00000-0  10879-3 0  9996
2 43546  51.6400  31.3735 0006374  96.0218 264.1500 15.55227703  6661
TEMPEST-D               
1 43547U 98067NV  18237.82318868  .00002837  00000-0  48714-4 0  9996
2 43547  51.6407  31.3912 0006657  97.0183 263.1566 15.54943336  6344
HALOSAT                 
1 43549U 98067NX  18238.53141982  .00016214  00000-0  24334-3 0  9993
2 43549  51.6402  27.8708 0006448 108.0989 252.0704 15.55040462  6462
ENDUROSAT ONE           
1 43551U 98067NZ  18238.52382699  .00024669  00000-0  36150-3 0  9999
2 43551  51.6401  27.8206 0006858 116.3572 243.8124 15.55385615  6873
EQUISAT                 
1 43552U 98067PA  18238.52433059  .00019113  00000-0  28255-3 0  9992
2 43552  51.6402  27.8243 0007121 116.7799 243.3921 15.55318792  6833
AEROCUBE 12A            
1 43556U 18046C   18237.04831698  .00000663  00000-0  37049-4 0  9994
2 43556  51.6442  43.3481 0009291  87.0432 273.1611 15.27725124  6042
AEROCUBE 12B            
1 43557U 18046D   18237.57160065  .00000312  00000-0  24276-4 0  9995
2 43557  51.6442  40.8416 0009293  88.7272 271.4772 15.27719518  6077
UITMSAT-1               
1 43589U 98067PD  18236.55429202  .00006874  00000-0  10846-3 0  9995
2 43589  51.6399  37.9152 0006564 118.9857 241.1793 15.54765358  2267
MAYA-1                  
1 43590U 98067PE  18238.41798168  .00009995  00000-0  15402-3 0  9994
2 43590  51.6401  28.6120 0006579 125.9146 234.2457 15.54831068  2486
BHUTAN-1                
1 43591U 98067PF  18238.41760461  .00009962  00000-0  15333-3 0  9997
2 43591  51.6402  28.6094 0006688 127.4297 232.7303 15.54867371  2482
SIRIUSSAT 1             
1 43595U 98067PG  18237.45870495  .00007252  00000-0  11537-3 0  9995
2 43595  51.6400  33.4513 0004083  77.6920 282.4528 15.54446374  1510
